{"type": "FeatureCollection", "features": [ {"type": "Feature", "properties": {"norad_id": 34400, "name": "COSMOS 2251 DEB", "group": "cosmos-2251-debris", "lat": -29.014909907913765, "lon": -142.9606871766557, "alt_km": 413.8898214123219, "timestamp": "2025-12-10T16:57:12.033136+00:00", "meta": {"OBJECT_NAME": "COSMOS 2251 DEB", "OBJECT_ID": "1993-036QR", "EPOCH": "2025-12-10T11:24:33.288192", "MEAN_MOTION": 15.52063065, "ECCENTRICITY": 0.000565, "INCLINATION": 73.9662, "RA_OF_ASC_NODE": 28.3711, "ARG_OF_PERICENTER": 268.8647, "MEAN_ANOMALY": 91.1919, "EPHEMERIS_TYPE": 0, "CLASSIFICATION_TYPE": "U", "NORAD_CAT_ID": 34400, "ELEMENT_SET_NO": 999, "REV_AT_EPOCH": 89939, "BSTAR": 0.0047102, "MEAN_MOTION_DOT": 0.002952, "MEAN_MOTION_DDOT": 0}, "tle": {"line1": "1 34400U 93036QR  25344.47538528  .00295200  00000+0  47102-2 0  9995", "line2": "2 34400  73.9662  28.3711 0005650 268.8647  91.1919 15.52063065899396"}}, "geometry": {"type": "Point", "coordinates": [-142.9606871766557, -29.014909907913765]}}, {"type": "Feature", "properties": {"norad_id": 34409, "name": "COSMOS 2251 DEB", "group": "cosmos-2251-debris", "lat": 73.97206733961445, "lon": 46.61696070382572, "alt_km": 668.8819732794773, "timestamp": "2025-12-10T16:57:12.033146+00:00", "meta": {"OBJECT_NAME": "COSMOS 2251 DEB", "OBJECT_ID": "1993-036RA", "EPOCH": "2025-12-10T09:02:30.514848", "MEAN_MOTION": 14.58018054, "ECCENTRICITY": 0.0079723, "INCLINATION": 74.0631, "RA_OF_ASC_NODE": 311.3254, "ARG_OF_PERICENTER": 26.2784, "MEAN_ANOMALY": 134.9539, "EPHEMERIS_TYPE": 0, "CLASSIFICATION_TYPE": "U", "NORAD_CAT_ID": 34409, "ELEMENT_SET_NO": 999, "REV_AT_EPOCH": 89158, "BSTAR": 0.00041894, "MEAN_MOTION_DOT": 1.981e-05, "MEAN_MOTION_DDOT": 0}, "tle": {"line1": "1 34409U 93036RA  25344.37674207  .00001981  00000+0  41894-3 0  9992", "line2": "2 34409  74.0631 311.3254 0079723  26.2784 134.9539 14.58018054891580"}}, "geometry": {"type": "Point", "coordinates": [46.61696070382572, 73.97206733961445]}}, {"type": "Feature", "properties": {"norad_id": 34410, "name": "COSMOS 2251 DEB", "group": "cosmos-2251-debris", "lat": 42.27536051959149, "lon": -78.53706769223285, "alt_km": 499.7227117450702, "timestamp": "2025-12-10T16:57:12.033156+00:00", "meta": {"OBJECT_NAME": "COSMOS 2251 DEB", "OBJECT_ID": "1993-036RB", "EPOCH": "2025-12-09T18:45:14.908320", "MEAN_MOTION": 15.18456802, "ECCENTRICITY": 0.00211208, "INCLINATION": 73.7385, "RA_OF_ASC_NODE": 268.0424, "ARG_OF_PERICENTER": 109.8067, "MEAN_ANOMALY": 280.6185, "EPHEMERIS_TYPE": 0, "CLASSIFICATION_TYPE": "U", "NORAD_CAT_ID": 34410, "ELEMENT_SET_NO": 999, "REV_AT_EPOCH": 89729, "BSTAR": 0.0034496141, "MEAN_MOTION_DOT": 0.00072173, "MEAN_MOTION_DDOT": 0}, "tle": {"line1": "1 34410U 93036RB  25343.78142255  .00072173  00000+0  34496-2 0  9991", "line2": "2 34410  73.7385 268.0424 0021120 109.8067 280.6185 15.18456802897295"}}, "geometry": {"type": "Point", "coordinates": [-78.53706769223285, 42.27536051959149]}}, {"type": "Feature", "properties": {"norad_id": 34412, "name": "COSMOS 2251 DEB", "group": "cosmos-2251-debris", "lat": 17.890408826870825, "lon": -26.23380239158001, "alt_km": 640.2214483735124, "timestamp": "2025-12-10T16:57:12.033166+00:00", "meta": {"OBJECT_NAME": "COSMOS 2251 DEB", "OBJECT_ID": "1993-036RD", "EPOCH": "2025-12-10T08:34:24.760128", "MEAN_MOTION": 14.47089283, "ECCENTRICITY": 0.0187115, "INCLINATION": 73.9488, "RA_OF_ASC_NODE": 329.0899, "ARG_OF_PERICENTER": 64.7312, "MEAN_ANOMALY": 297.3105, "EPHEMERIS_TYPE": 0, "CLASSIFICATION_TYPE": "U", "NORAD_CAT_ID": 34412, "ELEMENT_SET_NO": 999, "REV_AT_EPOCH": 87616, "BSTAR": 0.0017632, "MEAN_MOTION_DOT": 7.982e-05, "MEAN_MOTION_DDOT": 0}, "tle": {"line1": "1 34412U 93036RD  25344.35723102  .00007982  00000+0  17632-2 0  9992", "line2": "2 34412  73.9488 329.0899 0187115  64.7312 297.3105 14.47089283876162"}}, "geometry": {"type": "Point", "coordinates": [-26.23380239158001, 17.890408826870825]}}, {"type": "Feature", "properties": {"norad_id": 34413, "name": "COSMOS 2251 DEB", "group": "cosmos-2251-debris", "lat": -69.51459593670232, "lon": -141.46354450858934, "alt_km": 771.0357576475317, "timestamp": "2025-12-10T16:57:12.033176+00:00", "meta": {"OBJECT_NAME": "COSMOS 2251 DEB", "OBJECT_ID": "1993-036RE", "EPOCH": "2025-12-10T06:15:40.502880", "MEAN_MOTION": 14.29067329, "ECCENTRICITY": 0.0090884, "INCLINATION": 74.0314, "RA_OF_ASC_NODE": 269.3801, "ARG_OF_PERICENTER": 346.286, "MEAN_ANOMALY": 166.6054, "EPHEMERIS_TYPE": 0, "CLASSIFICATION_TYPE": "U", "NORAD_CAT_ID": 34413, "ELEMENT_SET_NO": 999, "REV_AT_EPOCH": 87095, "BSTAR": 0.0025811, "MEAN_MOTION_DOT": 6.816e-05, "MEAN_MOTION_DDOT": 0}, "tle": {"line1": "1 34413U 93036RE  25344.26088545  .00006816  00000+0  25811-2 0  9991", "line2": "2 34413  74.0314 269.3801 0090884 346.2860 166.6054 14.29067329870953"}}, "geometry": {"type": "Point", "coordinates": [-141.46354450858934, -69.51459593670232]}}, {"type": "Feature", "properties": {"norad_id": 34420, "name": "COSMOS 2251 DEB", "group": "cosmos-2251-debris", "lat": 74.01035802432565, "lon": -164.48395962486816, "alt_km": 716.5071199944496, "timestamp": "2025-12-10T16:57:12.033187+00:00", "meta": {"OBJECT_NAME": "COSMOS 2251 DEB", "OBJECT_ID": "1993-036RM", "EPOCH": "2025-12-10T10:18:27.019296", "MEAN_MOTION": 14.68286682, "ECCENTRICITY": 0.0106728, "INCLINATION": 74.0335, "RA_OF_ASC_NODE": 108.4277, "ARG_OF_PERICENTER": 230.0979, "MEAN_ANOMALY": 196.9441, "EPHEMERIS_TYPE": 0, "CLASSIFICATION_TYPE": "U", "NORAD_CAT_ID": 34420, "ELEMENT_SET_NO": 999, "REV_AT_EPOCH": 89736, "BSTAR": 0.00040997, "MEAN_MOTION_DOT": 2.543e-05, "MEAN_MOTION_DDOT": 0}, "tle": {"line1": "1 34420U 93036RM  25344.42947939  .00002543  00000+0  40997-3 0  9994", "line2": "2 34420  74.0335 108.4277 0106728 230.0979 196.9441 14.68286682897368"}}, "geometry": {"type": "Point", "coordinates": [-164.48395962486816, 74.01035802432565]}}, {"type": "Feature", "properties": {"norad_id": 34425, "name": "COSMOS 2251 DEB", "group": "cosmos-2251-debris", "lat": -40.89513161287463, "lon": -107.21623229808903, "alt_km": 678.5487521013401, "timestamp": "2025-12-10T16:57:12.033197+00:00", "meta": {"OBJECT_NAME": "COSMOS 2251 DEB", "OBJECT_ID": "1993-036RS", "EPOCH": "2025-12-10T09:22:10.261056", "MEAN_MOTION": 14.62107236, "ECCENTRICITY": 0.0024964, "INCLINATION": 74.02, "RA_OF_ASC_NODE": 59.0192, "ARG_OF_PERICENTER": 186.1061, "MEAN_ANOMALY": 173.9806, "EPHEMERIS_TYPE": 0, "CLASSIFICATION_TYPE": "U", "NORAD_CAT_ID": 34425, "ELEMENT_SET_NO": 999, "REV_AT_EPOCH": 88706, "BSTAR": 0.00093037, "MEAN_MOTION_DOT": 4.669e-05, "MEAN_MOTION_DDOT": 0}, "tle": {"line1": "1 34425U 93036RS  25344.39039654  .00004669  00000+0  93037-3 0  9995", "line2": "2 34425  74.0200  59.0192 0024964 186.1061 173.9806 14.62107236887062"}}, "geometry": {"type": "Point", "coordinates": [-107.21623229808903, -40.89513161287463]}}, {"type": "Feature", "properties": {"norad_id": 34429, "name": "COSMOS 2251 DEB", "group": "cosmos-2251-debris", "lat": 57.862160647066716, "lon": -160.33406911538702, "alt_km": 435.79182047050654, "timestamp": "2025-12-10T16:57:12.033207+00:00", "meta": {"OBJECT_NAME": "COSMOS 2251 DEB", "OBJECT_ID": "1993-036RW", "EPOCH": "2025-12-10T12:08:01.997952", "MEAN_MOTION": 15.40292779, "ECCENTRICITY": 0.0006787, "INCLINATION": 73.9712, "RA_OF_ASC_NODE": 172.8672, "ARG_OF_PERICENTER": 16.6969, "MEAN_ANOMALY": 12.0165, "EPHEMERIS_TYPE": 0, "CLASSIFICATION_TYPE": "U", "NORAD_CAT_ID": 34429, "ELEMENT_SET_NO": 999, "REV_AT_EPOCH": 89414, "BSTAR": 0.0065168, "MEAN_MOTION_DOT": 0.00272351, "MEAN_MOTION_DDOT": 0}, "tle": {"line1": "1 34429U 93036RW  25344.50557868  .00272351  00000+0  65168-2 0  9992", "line2": "2 34429  73.9712 172.8672 0006787  16.6969  12.0165 15.40292779894148"}}, "geometry": {"type": "Point", "coordinates": [-160.33406911538702, 57.862160647066716]}}, {"type": "Feature", "properties": {"norad_id": 34430, "name": "COSMOS 2251 DEB", "group": "cosmos-2251-debris", "lat": 10.481201537619224, "lon": 124.08159692913343, "alt_km": 798.7307007566651, "timestamp": "2025-12-10T16:57:12.033217+00:00", "meta": {"OBJECT_NAME": "COSMOS 2251 DEB", "OBJECT_ID": "1993-036RX", "EPOCH": "2025-12-10T07:50:04.689024", "MEAN_MOTION": 14.39620362, "ECCENTRICITY": 0.0060253, "INCLINATION": 74.0523, "RA_OF_ASC_NODE": 307.8146, "ARG_OF_PERICENTER": 18.034, "MEAN_ANOMALY": 342.2933, "EPHEMERIS_TYPE": 0, "CLASSIFICATION_TYPE": "U", "NORAD_CAT_ID": 34430, "ELEMENT_SET_NO": 999, "REV_AT_EPOCH": 87920, "BSTAR": 0.00083466, "MEAN_MOTION_DOT": 2.639e-05, "MEAN_MOTION_DDOT": 0}, "tle": {"line1": "1 34430U 93036RX  25344.32644316  .00002639  00000+0  83466-3 0  9991", "line2": "2 34430  74.0523 307.8146 0060253  18.0340 342.2933 14.39620362879206"}}, "geometry": {"type": "Point", "coordinates": [124.08159692913343, 10.481201537619224]}}, {"type": "Feature", "properties": {"norad_id": 34431, "name": "COSMOS 2251 DEB", "group": "cosmos-2251-debris", "lat": 28.9692987501565, "lon": -10.214066315225756, "alt_km": 746.8082534204859, "timestamp": "2025-12-10T16:57:12.033227+00:00", "meta": {"OBJECT_NAME": "COSMOS 2251 DEB", "OBJECT_ID": "1993-036RY", "EPOCH": "2025-12-09T23:27:02.345472", "MEAN_MOTION": 14.28759324, "ECCENTRICITY": 0.0068412, "INCLINATION": 74.0746, "RA_OF_ASC_NODE": 180.2002, "ARG_OF_PERICENTER": 166.6572, "MEAN_ANOMALY": 193.6408, "EPHEMERIS_TYPE": 0, "CLASSIFICATION_TYPE": "U", "NORAD_CAT_ID": 34431, "ELEMENT_SET_NO": 999, "REV_AT_EPOCH": 87103, "BSTAR": 0.00077362486, "MEAN_MOTION_DOT": 1.973e-05, "MEAN_MOTION_DDOT": 0}, "tle": {"line1": "1 34431U 93036RY  25343.97711048  .00001973  00000+0  77362-3 0  9997", "line2": "2 34431  74.0746 180.2002 0068412 166.6572 193.6408 14.28759324871037"}}, "geometry": {"type": "Point", "coordinates": [-10.214066315225756, 28.9692987501565]}}]}